STARLINK-30369          
1 57781U 23134L   26068.39817921  .00000027  00000+0  10492-4 0  9991
2 57781  42.9965 195.9954 0000523 285.4922  74.5872 15.27583915139461
FLOCK 4G-5              
1 62663U 25009BG  26068.45638436  .00011278  00000+0  40688-3 0  9997
2 62663  97.4058 151.2478 0002094 314.5072  45.5996 15.28679529 63699
